satname,norad_id,inclination_deg,eccentricity,mean_motion_rev_per_day,perigee_km,apogee_km,l1,l2
STARLINK-1008,44714,53.0559,0.0001436,15.06403247,546.2071277449313,548.19608499268,1 44714U 19074B   25351.56746832  .00000840  00000+0  75265-4 0  9998,2 44714  53.0559 195.2785 0001436  89.8024 270.3130 15.06403247336371
STARLINK-1012,44718,53.0529,0.0001517,15.06403317,546.1508179956272,548.2519656637087,1 44718U 19074F   25351.27997668  .00000791  00000+0  71988-4 0  9998,2 44718  53.0529 196.5668 0001517  83.7134 276.4027 15.06403317336326
STARLINK-1017,44723,53.0483,0.0006941,15.17951402,507.25041033149773,516.8153441550867,1 44723U 19074L   25351.53141727  .00018713  00000+0  92301-3 0  9994,2 44723  53.0483 188.6566 0006941 106.9825 253.1930 15.17951402336466
STARLINK-1019,44724,53.0513,0.0003754,15.56725344,394.5984603435172,399.68533974166894,1 44724U 19074M   25351.62346093  .00096851  00000+0  13216-2 0  9994,2 44724  53.0513 181.7583 0003754 153.7866 206.3336 15.56725344336566
STARLINK-1020,44725,53.0526,0.0001264,15.0640601,546.3177764856446,548.0684999445857,1 44725U 19074N   25351.61355720  .00001367  00000+0  11061-3 0  9996,2 44725  53.0526 215.0736 0001264  95.6905 264.4228 15.06406010336098
STARLINK-1031,44736,53.0472,0.0005969,15.60550119,382.02939988226535,390.10450656162084,1 44736U 19074Z   25351.66670139  .00116751  00000+0  13740-2 0  9996,2 44736  53.0472 168.2872 0005969 109.7337 143.7788 15.60550119  5983
STARLINK-1036,44741,53.0525,0.0001411,15.06396242,546.2459073842911,548.2002439976513,1 44741U 19074AE  25351.64304115  .00000003  00000+0  19126-4 0  9996,2 44741  53.0525 214.9372 0001411  90.9885 269.1265 15.06396242336108
STARLINK-1039,44744,53.0486,0.0003126,15.15453634,517.4454764569718,521.7579426982002,1 44744U 19074AH  25351.39464247  .00026642  00000+0  14029-2 0  9996,2 44744  53.0486 231.3907 0003126  62.5366 297.5944 15.15453634335857
STARLINK-1042,44747,53.0451,0.0001481,15.45558018,428.73069360247246,430.7471864559093,1 44747U 19074AL  25351.63880808  .00017209  00000+0  36042-3 0  9990,2 44747  53.0451 127.1523 0001481 232.2821 127.8051 15.45558018337369
STARLINK-1043,44748,53.0547,0.0002969,15.44536969,430.7167879053259,434.76108603669854,1 44748U 19074AM  25351.04651746  .00068023  00000+0  14387-2 0  9990,2 44748  53.0547 230.8785 0002969 116.5788 243.5523 15.44536969335836
STARLINK-1046,44751,53.0533,0.0001512,15.06415887,546.1157616594601,548.2099723392403,1 44751U 19074AQ  25351.09937129  .00006913  00000+0  48232-3 0  9998,2 44751  53.0533 237.3795 0001512  86.8127 273.3035 15.06415887335749
STARLINK-1047,44752,53.0681,0.0001604,15.30491124,473.2468251531327,475.4451016877965,1 44752U 19074AR  25351.46821998  .00006452  00000+0  22776-3 0  9999,2 44752  53.0681 169.4970 0001604   5.5247 354.5771 15.30491124336742
STARLINK-1048,44753,53.0519,0.0001205,15.06405384,546.3605542900177,548.029559315707,1 44753U 19074AS  25351.58959335  .00002708  00000+0  20062-3 0  9996,2 44753  53.0519 195.1759 0001205 100.1595 259.9530 15.06405384336375
STARLINK-1053,44758,53.0378,0.0002101,15.67937708,363.3864565863696,366.2198400366906,1 44758U 19074AX  25351.63317510  .00066080  00000+0  58702-3 0  9995,2 44758  53.0378 133.8228 0002101 199.0900 161.0037 15.67937708337256
STARLINK-1060,44765,53.0476,0.0006528,15.7768065,332.63023279675326,341.3975337899801,1 44765U 19074BE  25351.66670139  .00084021  00000+0  49051-3 0  9997,2 44765  53.0476 177.9446 0006528 155.9966 122.5426 15.77680650  5836
STARLINK-1063,44768,53.0541,0.0001412,15.06409552,546.2044275060107,548.1601376714143,1 44768U 19074BH  25351.61907179  .00001676  00000+0  13137-3 0  9993,2 44768  53.0541 235.0489 0001412  91.1890 268.9260 15.06409552335838
STARLINK-1067,44771,53.0536,0.0001852,15.12221054,528.1488383470005,530.7074004672286,1 44771U 19074BL  25351.66670139  .00064390  00000+0  36686-2 0  9990,2 44771  53.0536 234.7479 0001852  61.4645 301.7416 15.12221054  5803
STARLINK-1068,44772,53.0545,0.0001547,15.26695112,484.6382131890914,486.7618843719829,1 44772U 19074BM  25351.66670139  .00054907  00000+0  20613-2 0  9997,2 44772  53.0545 213.9666 0001547  96.8748 359.5955 15.26695112  5846
STARLINK-1112,44925,53.0486,0.0008949,15.66349992,363.3206567889247,375.3973251135303,1 44925U 20001M   25351.66670139  .00180947  00000+0  16783-2 0  9996,2 44925  53.0486 294.8246 0008949  59.6014 121.6108 15.66349992  5808
STARLINK-1114,44927,53.055,0.0001471,15.06400787,546.1904274796152,548.2278643157379,1 44927U 20001P   25351.30578140 -.00000979  00000+0 -46804-4 0  9995,2 44927  53.0550 356.4573 0001471  97.5235 262.5922 15.06400787327438
STARLINK-1123,44930,53.0557,0.0001607,15.06403747,546.0871722789652,548.3129756145308,1 44930U 20001S   25351.38686606  .00002852  00000+0  21025-3 0  9991,2 44930  53.0557 356.0910 0001607  82.2468 277.8703 15.06403747327446
STARLINK-1144,44933,53.0415,0.0003133,15.7604548,339.55247962859175,343.76310304484286,1 44933U 20001V   25351.66670139  .00142818  00000+0  88807-3 0  9997,2 44933  53.0415 268.9633 0003133 122.6304  29.9286 15.76045480  5920
STARLINK-1094,44941,53.0568,0.0001417,15.06396948,546.2395886783843,548.2022351106152,1 44941U 20001AD  25351.26707952  .00001131  00000+0  94843-4 0  9996,2 44941  53.0568 336.6308 0001417  82.0443 278.0707 15.06396948327705
STARLINK-1122,44949,53.0569,0.0001867,15.06400834,545.9160397510286,548.5019639481188,1 44949U 20001AM  25351.35553503 -.00000968  00000+0 -46113-4 0  9991,2 44949  53.0569 336.2273 0001867  89.8594 270.2609 15.06400834327718
STARLINK-1080,44961,53.0539,0.0001014,15.08841739,539.0366010094494,540.4395460743626,1 44961U 20001AZ  25351.66670139  .00034859  00000+0  21973-2 0  9993,2 44961  53.0539 314.8214 0001014 151.0577 113.3556 15.08841739  5809
STARLINK-1090,44968,53.0556,0.000121,15.06398157,546.3792386146124,548.0551743325796,1 44968U 20001BG  25351.29103256  .00002380  00000+0  17861-3 0  9996,2 44968  53.0556 316.5208 0001210  90.8134 269.2994 15.06398157327997
STARLINK-1132,45044,53.0555,0.0001392,15.06405709,546.2300546471306,548.1580668144379,1 45044U 20006A   25351.51588448  .00004935  00000+0  34993-3 0  9995,2 45044  53.0555 275.5138 0001392  90.4526 269.6623 15.06405709324352
STARLINK-1131,45047,53.0563,0.0001277,15.06409695,546.2974811025551,548.066207535393,1 45047U 20006D   25351.22658830  .00004243  00000+0  30350-3 0  9994,2 45047  53.0563 297.3515 0001277  82.9551 277.1583 15.06409695324022
STARLINK-1134,45048,53.0381,0.0004743,15.32908777,463.89234748251874,470.3857763548549,1 45048U 20006E   25351.50403942  .00012951  00000+0  41253-3 0  9997,2 45048  53.0381 265.9048 0004743  14.4728 345.6408 15.32908777324492
STARLINK-1156,45054,53.0546,0.0001732,15.06409347,545.9834454690545,548.382376286183,1 45054U 20006L   25351.26339914  .00005476  00000+0  38616-3 0  9997,2 45054  53.0546 296.6438 0001732  67.4420 292.6752 15.06409347324031
STARLINK-1159,45057,53.0534,0.0006989,15.57195073,391.04502962153674,400.51360985326573,1 45057U 20006P   25351.63492989  .00080831  00000+0  10864-2 0  9995,2 45057  53.0534 279.6846 0006989  83.2553 276.9254 15.57195073324314
STARLINK-1166,45060,53.0573,0.0001357,15.06394607,546.2883147135835,548.1678587981278,1 45060U 20006S   25351.55458192 -.00000302  00000+0 -13591-5 0  9998,2 45060  53.0573 295.3390 0001357  78.5751 281.5391 15.06394607324087
STARLINK-1169,45061,53.0559,0.000136,15.06388531,546.3048568100339,548.1885611788803,1 45061U 20006T   25351.23020387 -.00005146  00000+0 -32691-3 0  9996,2 45061  53.0559 296.7966 0001360  92.3619 267.7526 15.06388531324037
STARLINK-1171,45062,53.0536,0.0013105,15.40567689,435.4917775948761,453.37373292341,1 45062U 20006U   25351.12260667  .00049260  00000+0  11923-2 0  9999,2 45062  53.0536 285.0496 0013105  73.4365 286.8077 15.40567689324191
STARLINK-1133,45064,53.0561,0.000138,15.06414879,546.2102645136192,548.1216481295642,1 45064U 20006W   25351.49376540  .00005883  00000+0  41332-3 0  9990,2 45064  53.0561 275.6107 0001380  83.4955 276.6191 15.06414879324359
STARLINK-1167,45071,53.055,0.0001586,15.06441978,545.9845645249707,548.1812442786477,1 45071U 20006AD  25351.12147205  .00013342  00000+0  91187-3 0  9994,2 45071  53.0550 277.2813 0001586 119.7854 240.3293 15.06441978324290
STARLINK-1168,45072,53.0545,0.0001301,15.06408495,546.2845376490068,548.0865065692606,1 45072U 20006AE  25351.52325311  .00006428  00000+0  44995-3 0  9997,2 45072  53.0545 275.4770 0001301  84.3094 275.8043 15.06408495324355
STARLINK-1172,45074,53.0549,0.0001462,15.0641248,546.1608284326485,548.1857891669415,1 45074U 20006AG  25351.53431036  .00005715  00000+0  40209-3 0  9994,2 45074  53.0549 275.4302 0001462  82.7463 277.3692 15.06412480324358
STARLINK-1153,45080,53.0545,0.0001337,15.06409643,546.2560885389867,548.107918840572,1 45080U 20006AN  25351.18046496  .00008027  00000+0  55700-3 0  9995,2 45080  53.0545 277.0162 0001337  89.0926 271.0216 15.06409643324303
STARLINK-1151,45081,53.0554,0.0001923,15.27759108,481.1935316873278,483.83213761373463,1 45081U 20006AP  25351.66670139  .02068816  00000+0  67702-1 0  9993,2 45081  53.0554 273.7683 0001923  79.8706 348.0078 15.27759108  5842
STARLINK-1185,45087,53.0546,0.000161,15.06419006,546.0383361585145,548.2682796376575,1 45087U 20006AV  25351.47349751  .00010347  00000+0  71216-3 0  9992,2 45087  53.0546 255.7008 0001610  86.0905 274.0268 15.06419006324631
STARLINK-1183,45088,53.0542,0.000159,15.06416542,546.0597371950307,548.2619819143702,1 45088U 20006AW  25351.42926568  .00008841  00000+0  61138-3 0  9993,2 45088  53.0542 255.9016 0001590  75.8220 284.2946 15.06416542324629
STARLINK-1142,45093,53.0192,0.000875,15.96456769,278.4287416938387,290.08793353466353,1 45093U 20006BB  25351.66670139  .00713364  23076-3  16597-2 0  9998,2 45093  53.0192 164.9102 0008750 247.6223  31.8928 15.96456769  5994
